CCSDS_OMM_VERS = 2.0
CREATION_DATE  = 
ORIGINATOR     = 

OBJECT_NAME    = SL-14 R/B
OBJECT_ID      = 1991-042B
CENTER_NAME    = EARTH
REF_FRAME      = TEME
TIME_SYSTEM    = UTC
MEAN_ELEMENT_THEORY = SGP/SGP4

EPOCH          = 2026-03-04T11:46:38.049888
MEAN_MOTION    = 14.81823576
ECCENTRICITY   = .0015621
INCLINATION    = 82.4912
RA_OF_ASC_NODE = 225.0577
ARG_OF_PERICENTER = 257.1611
MEAN_ANOMALY   = 102.7858

EPHEMERIS_TYPE = 0
CLASSIFICATION_TYPE = U
NORAD_CAT_ID   = 21423
ELEMENT_SET_NO = 999
REV_AT_EPOCH   = 85230
BSTAR          = .86799E-4
MEAN_MOTION_DOT = .71E-5
MEAN_MOTION_DDOT = 0

CCSDS_OMM_VERS = 2.0
CREATION_DATE  = 
ORIGINATOR     = 

OBJECT_NAME    = ERS-1
OBJECT_ID      = 1991-050A
CENTER_NAME    = EARTH
REF_FRAME      = TEME
TIME_SYSTEM    = UTC
MEAN_ELEMENT_THEORY = SGP/SGP4

EPOCH          = 2026-03-04T11:36:57.350304
MEAN_MOTION    = 14.39444979
ECCENTRICITY   = .0031342
INCLINATION    = 98.7885
RA_OF_ASC_NODE = 81.5877
ARG_OF_PERICENTER = 216.0960
MEAN_ANOMALY   = 143.8111

EPHEMERIS_TYPE = 0
CLASSIFICATION_TYPE = U
NORAD_CAT_ID   = 21574
ELEMENT_SET_NO = 999
REV_AT_EPOCH   = 81498
BSTAR          = .16692E-3
MEAN_MOTION_DOT = .476E-5
MEAN_MOTION_DDOT = 0

CCSDS_OMM_VERS = 2.0
CREATION_DATE  = 
ORIGINATOR     = 

OBJECT_NAME    = ARIANE 40 R/B
OBJECT_ID      = 1991-050F
CENTER_NAME    = EARTH
REF_FRAME      = TEME
TIME_SYSTEM    = UTC
MEAN_ELEMENT_THEORY = SGP/SGP4

EPOCH          = 2026-03-04T03:09:00.702432
MEAN_MOTION    = 14.42889010
ECCENTRICITY   = .0004363
INCLINATION    = 98.2024
RA_OF_ASC_NODE = 115.5761
ARG_OF_PERICENTER = 93.2924
MEAN_ANOMALY   = 266.8765

EPHEMERIS_TYPE = 0
CLASSIFICATION_TYPE = U
NORAD_CAT_ID   = 21610
ELEMENT_SET_NO = 999
REV_AT_EPOCH   = 81819
BSTAR          = .13953E-3
MEAN_MOTION_DOT = .424E-5
MEAN_MOTION_DDOT = 0

CCSDS_OMM_VERS = 2.0
CREATION_DATE  = 
ORIGINATOR     = 

OBJECT_NAME    = INTERCOSMOS 25
OBJECT_ID      = 1991-086A
CENTER_NAME    = EARTH
REF_FRAME      = TEME
TIME_SYSTEM    = UTC
MEAN_ELEMENT_THEORY = SGP/SGP4

EPOCH          = 2026-03-04T03:02:10.927968
MEAN_MOTION    = 12.11982538
ECCENTRICITY   = .1487059
INCLINATION    = 82.6063
RA_OF_ASC_NODE = 313.3703
ARG_OF_PERICENTER = 128.9167
MEAN_ANOMALY   = 245.4246

EPHEMERIS_TYPE = 0
CLASSIFICATION_TYPE = U
NORAD_CAT_ID   = 21819
ELEMENT_SET_NO = 999
REV_AT_EPOCH   = 49601
BSTAR          = .33299E-3
MEAN_MOTION_DOT = .1733E-4
MEAN_MOTION_DDOT = 0

CCSDS_OMM_VERS = 2.0
CREATION_DATE  = 
ORIGINATOR     = 

OBJECT_NAME    = SL-8 R/B
OBJECT_ID      = 1992-008B
CENTER_NAME    = EARTH
REF_FRAME      = TEME
TIME_SYSTEM    = UTC
MEAN_ELEMENT_THEORY = SGP/SGP4

EPOCH          = 2026-03-04T03:13:31.409184
MEAN_MOTION    = 13.75969799
ECCENTRICITY   = .003527
INCLINATION    = 82.9227
RA_OF_ASC_NODE = 271.9119
ARG_OF_PERICENTER = 148.4698
MEAN_ANOMALY   = 331.0453

EPHEMERIS_TYPE = 0
CLASSIFICATION_TYPE = U
NORAD_CAT_ID   = 21876
ELEMENT_SET_NO = 999
REV_AT_EPOCH   = 70865
BSTAR          = -.10063E-4
MEAN_MOTION_DOT = .6E-7
MEAN_MOTION_DDOT = 0

CCSDS_OMM_VERS = 2.0
CREATION_DATE  = 
ORIGINATOR     = 

OBJECT_NAME    = SL-8 R/B
OBJECT_ID      = 1992-020B
CENTER_NAME    = EARTH
REF_FRAME      = TEME
TIME_SYSTEM    = UTC
MEAN_ELEMENT_THEORY = SGP/SGP4

EPOCH          = 2026-03-04T09:12:25.855776
MEAN_MOTION    = 13.75548821
ECCENTRICITY   = .0027874
INCLINATION    = 82.9341
RA_OF_ASC_NODE = 157.7001
ARG_OF_PERICENTER = 314.2233
MEAN_ANOMALY   = 113.7047

EPHEMERIS_TYPE = 0
CLASSIFICATION_TYPE = U
NORAD_CAT_ID   = 21938
ELEMENT_SET_NO = 999
REV_AT_EPOCH   = 70040
BSTAR          = .92841E-4
MEAN_MOTION_DOT = .105E-5
MEAN_MOTION_DDOT = 0

CCSDS_OMM_VERS = 2.0
CREATION_DATE  = 
ORIGINATOR     = 

OBJECT_NAME    = USA 81
OBJECT_ID      = 1992-023A
CENTER_NAME    = EARTH
REF_FRAME      = TEME
TIME_SYSTEM    = UTC
MEAN_ELEMENT_THEORY = SGP/SGP4

EPOCH          = 2026-03-04T06:42:51.048000
MEAN_MOTION    = 14.32366052
ECCENTRICITY   = .0002602
INCLINATION    = 85.0095
RA_OF_ASC_NODE = 134.5619
ARG_OF_PERICENTER = 81.8580
MEAN_ANOMALY   = 278.2908

EPHEMERIS_TYPE = 0
CLASSIFICATION_TYPE = U
NORAD_CAT_ID   = 21949
ELEMENT_SET_NO = 999
REV_AT_EPOCH   = 9401
BSTAR          = .89261E-4
MEAN_MOTION_DOT = .261E-5
MEAN_MOTION_DDOT = 0

CCSDS_OMM_VERS = 2.0
CREATION_DATE  = 
ORIGINATOR     = 

OBJECT_NAME    = COSMOS 2219
OBJECT_ID      = 1992-076A
CENTER_NAME    = EARTH
REF_FRAME      = TEME
TIME_SYSTEM    = UTC
MEAN_ELEMENT_THEORY = SGP/SGP4

EPOCH          = 2026-03-04T08:34:15.258720
MEAN_MOTION    = 14.14089889
ECCENTRICITY   = .0019292
INCLINATION    = 71.0621
RA_OF_ASC_NODE = 29.2143
ARG_OF_PERICENTER = 214.1799
MEAN_ANOMALY   = 145.8083

EPHEMERIS_TYPE = 0
CLASSIFICATION_TYPE = U
NORAD_CAT_ID   = 22219
ELEMENT_SET_NO = 999
REV_AT_EPOCH   = 71762
BSTAR          = .18506E-3
MEAN_MOTION_DOT = .306E-5
MEAN_MOTION_DDOT = 0

CCSDS_OMM_VERS = 2.0
CREATION_DATE  = 
ORIGINATOR     = 

OBJECT_NAME    = SL-16 R/B
OBJECT_ID      = 1992-076B
CENTER_NAME    = EARTH
REF_FRAME      = TEME
TIME_SYSTEM    = UTC
MEAN_ELEMENT_THEORY = SGP/SGP4

EPOCH          = 2026-03-04T11:20:53.471040
MEAN_MOTION    = 14.16860223
ECCENTRICITY   = .0010579
INCLINATION    = 71.0000
RA_OF_ASC_NODE = 199.3614
ARG_OF_PERICENTER = 106.0891
MEAN_ANOMALY   = 318.3363

EPHEMERIS_TYPE = 0
CLASSIFICATION_TYPE = U
NORAD_CAT_ID   = 22220
ELEMENT_SET_NO = 999
REV_AT_EPOCH   = 72109
BSTAR          = .33151E-4
MEAN_MOTION_DOT = .19E-6
MEAN_MOTION_DDOT = 0

CCSDS_OMM_VERS = 2.0
CREATION_DATE  = 
ORIGINATOR     = 

OBJECT_NAME    = COSMOS 2221
OBJECT_ID      = 1992-080A
CENTER_NAME    = EARTH
REF_FRAME      = TEME
TIME_SYSTEM    = UTC
MEAN_ELEMENT_THEORY = SGP/SGP4

EPOCH          = 2026-03-04T02:04:30.372096
MEAN_MOTION    = 14.96175748
ECCENTRICITY   = .0013542
INCLINATION    = 82.5016
RA_OF_ASC_NODE = 284.4495
ARG_OF_PERICENTER = 206.5778
MEAN_ANOMALY   = 153.4751

EPHEMERIS_TYPE = 0
CLASSIFICATION_TYPE = U
NORAD_CAT_ID   = 22236
ELEMENT_SET_NO = 999
REV_AT_EPOCH   = 77995
BSTAR          = .24463E-3
MEAN_MOTION_DOT = .2785E-4
MEAN_MOTION_DDOT = 0

CCSDS_OMM_VERS = 2.0
CREATION_DATE  = 
ORIGINATOR     = 

OBJECT_NAME    = SL-16 R/B
OBJECT_ID      = 1992-093B
CENTER_NAME    = EARTH
REF_FRAME      = TEME
TIME_SYSTEM    = UTC
MEAN_ELEMENT_THEORY = SGP/SGP4

EPOCH          = 2026-03-04T07:08:58.571232
MEAN_MOTION    = 14.15449479
ECCENTRICITY   = .0006317
INCLINATION    = 71.0239
RA_OF_ASC_NODE = 15.5835
ARG_OF_PERICENTER = 299.4224
MEAN_ANOMALY   = 60.6268

EPHEMERIS_TYPE = 0
CLASSIFICATION_TYPE = U
NORAD_CAT_ID   = 22285
ELEMENT_SET_NO = 999
REV_AT_EPOCH   = 71239
BSTAR          = -.48895E-4
MEAN_MOTION_DOT = -.143E-5
MEAN_MOTION_DDOT = 0

CCSDS_OMM_VERS = 2.0
CREATION_DATE  = 
ORIGINATOR     = 

OBJECT_NAME    = COSMOS 2228
OBJECT_ID      = 1992-094A
CENTER_NAME    = EARTH
REF_FRAME      = TEME
TIME_SYSTEM    = UTC
MEAN_ELEMENT_THEORY = SGP/SGP4

EPOCH          = 2026-03-04T12:10:51.220128
MEAN_MOTION    = 14.97160694
ECCENTRICITY   = .0017126
INCLINATION    = 82.5146
RA_OF_ASC_NODE = 242.2733
ARG_OF_PERICENTER = 323.2007
MEAN_ANOMALY   = 36.8039

EPHEMERIS_TYPE = 0
CLASSIFICATION_TYPE = U
NORAD_CAT_ID   = 22286
ELEMENT_SET_NO = 999
REV_AT_EPOCH   = 77528
BSTAR          = .32065E-3
MEAN_MOTION_DOT = .374E-4
MEAN_MOTION_DDOT = 0

