SL-14 R/B               
1 21423U 91042B   26063.49071817  .00000710  00000+0  86799-4 0  9992
2 21423  82.4912 225.0577 0015621 257.1611 102.7858 14.81823576852300
ERS-1                   
1 21574U 91050A   26063.48399711  .00000476  00000+0  16692-3 0  9996
2 21574  98.7885  81.5877 0031342 216.0960 143.8111 14.39444979814982
ARIANE 40 R/B           
1 21610U 91050F   26063.13125813  .00000424  00000+0  13953-3 0  9999
2 21610  98.2024 115.5761 0004363  93.2924 266.8765 14.42889010818192
INTERCOSMOS 25          
1 21819U 91086A   26063.12651537  .00001733  00000+0  33299-3 0  9994
2 21819  82.6063 313.3703 1487059 128.9167 245.4246 12.11982538496013
SL-8 R/B                
1 21876U 92008B   26063.13439131  .00000006  00000+0 -10063-4 0  9995
2 21876  82.9227 271.9119 0035270 148.4698 331.0453 13.75969799708653
SL-8 R/B                
1 21938U 92020B   26063.38363259  .00000105  00000+0  92841-4 0  9995
2 21938  82.9341 157.7001 0027874 314.2233 113.7047 13.75548821700407
USA 81                  
1 21949U 92023A   26063.27975750  .00000261  00000+0  89261-4 0  9998
2 21949  85.0095 134.5619 0002602  81.8580 278.2908 14.32366052 94015
COSMOS 2219             
1 22219U 92076A   26063.35712105  .00000306  00000+0  18506-3 0  9992
2 22219  71.0621  29.2143 0019292 214.1799 145.8083 14.14089889717626
SL-16 R/B               
1 22220U 92076B   26063.47284110  .00000019  00000+0  33151-4 0  9992
2 22220  71.0000 199.3614 0010579 106.0891 318.3363 14.16860223721097
COSMOS 2221             
1 22236U 92080A   26063.08646264  .00002785  00000+0  24463-3 0  9990
2 22236  82.5016 284.4495 0013542 206.5778 153.4751 14.96175748779950
SL-16 R/B               
1 22285U 92093B   26063.29790013 -.00000143  00000+0 -48895-4 0  9997
2 22285  71.0239  15.5835 0006317 299.4224  60.6268 14.15449479712397
COSMOS 2228             
1 22286U 92094A   26063.50753727  .00003740  00000+0  32065-3 0  9999
2 22286  82.5146 242.2733 0017126 323.2007  36.8039 14.97160694775280
